STARLINK-3276           
1 50189U 21125AK  26068.90295688  .00029472  00000+0  16874-2 0  9994
2 50189  53.2144 247.2888 0004579 141.1703 218.9620 15.12414704236687
EOS-4                   
1 51656U 22013A   26067.48836365  .00002825  00000+0  16489-3 0  9992
2 51656  97.5144  75.6612 0001929  90.8949 269.2503 15.12745091224260
